[{"OBJECT_NAME":"YAOGAN-27","OBJECT_ID":"2015-040A","EPOCH":"2026-03-09T23:21:37.385568","MEAN_MOTION":13.16063344,"ECCENTRICITY":0.00088956,"INCLINATION":100.1112,"RA_OF_ASC_NODE":59.6878,"ARG_OF_PERICENTER":83.8271,"MEAN_ANOMALY":276.3856,"EPHEMERIS_TYPE":0,"CLASSIFICATION_TYPE":"U","NORAD_CAT_ID":40878,"ELEMENT_SET_NO":999,"REV_AT_EPOCH":50461,"BSTAR":-0.0012687486,"MEAN_MOTION_DOT":-5.24e-6,"MEAN_MOTION_DDOT":0},{"OBJECT_NAME":"ONEWEB-0258","OBJECT_ID":"2021-060K","EPOCH":"2026-03-09T22:16:48.513792","MEAN_MOTION":13.16587429,"ECCENTRICITY":0.00015128,"INCLINATION":87.9011,"RA_OF_ASC_NODE":248.5239,"ARG_OF_PERICENTER":93.7316,"MEAN_ANOMALY":266.3988,"EPHEMERIS_TYPE":0,"CLASSIFICATION_TYPE":"U","NORAD_CAT_ID":48976,"ELEMENT_SET_NO":999,"REV_AT_EPOCH":22653,"BSTAR":0.0048981777,"MEAN_MOTION_DOT":1.886e-5,"MEAN_MOTION_DDOT":0}]
